ONEWEB-0080             
1 45426U 20020C   25281.49027949  .00000528  00000+0  14537-2 0  9993
2 45426  87.8811  71.1914 0001524 106.7754 253.3541 13.11416089269713
ONEWEB-0090             
1 45427U 20020D   25281.43347558 -.00000109  00000+0 -34291-3 0  9996
2 45427  87.8814  71.2036 0001667  95.8788 264.2530 13.11415278269679
ONEWEB-0061             
1 45428U 20020E   25281.46556543 -.00000058  00000+0 -19976-3 0  9992
2 45428  87.8818  71.1765 0001579  95.4538 264.6770 13.11419425269637
ONEWEB-0081             
1 45429U 20020F   25281.44703182 -.00000551  00000+0 -15913-2 0  9998
2 45429  87.8807  71.1986 0001392  90.0517 270.0771 13.11416840269744
ONEWEB-0069             
1 45430U 20020G   25281.43601861 -.00000241  00000+0 -71580-3 0  9999
2 45430  87.8813  71.1975 0001571  91.2134 268.9174 13.11414643269672
ONEWEB-0031             
1 45431U 20020H   25281.48434749  .00000449  00000+0  12308-2 0  9994
2 45431  87.8808  71.2150 0001749  99.2082 260.9244 13.11416053269666
ONEWEB-0027             
1 45432U 20020J   25281.34965704 -.00000013  00000+0 -67294-4 0  9995
2 45432  87.9094  55.9193 0002082 100.1071 260.0295 13.17647597273197
ONEWEB-0064             
1 45433U 20020K   25281.40636083  .00000543  00000+0  14962-2 0  9996
2 45433  87.8805  71.2212 0001790  97.2800 262.8532 13.11416309269683
